IRIDIUM 150             
1 43257U 18030J   25344.14522463  .00000360  00000+0  12146-3 0  9993
2 43257  86.3973   9.4935 0002331  96.5029 263.6432 14.34217245403061
IRIDIUM 143             
1 43258U 18030K   25344.12619683  .00000369  00000+0  12464-3 0  9995
2 43258  86.3974   9.5868 0002417  98.0172 262.1298 14.34217605402995
IRIDIUM 161             
1 43478U 18047C   25344.03446273  .00000191  00000+0  50914-4 0  9996
2 43478  86.4506 167.5100 0001921  83.7371 276.4048 14.43278260397859
IRIDIUM 152             
1 43479U 18047D   25344.02914522  .00000030  00000+0  36297-5 0  9994
2 43479  86.3982 167.3728 0001829  88.0095 272.1311 14.34218161395374
IRIDIUM 147             
1 43480U 18047E   25344.03548664 -.00000079  00000+0 -35409-4 0  9995
2 43480  86.3989 167.3719 0001943  85.6611 274.4807 14.34216617395376
IRIDIUM 110             
1 43481U 18047F   25344.04182649  .00000174  00000+0  55106-4 0  9994
2 43481  86.3985 167.4559 0001729  74.9619 285.1768 14.34217475395364
IRIDIUM 162             
1 43482U 18047G   25344.02815368  .00000114  00000+0  27888-4 0  9994
2 43482  86.4506 167.4061 0001704  94.9151 265.2244 14.43283124397846
IRIDIUM 160             
1 43569U 18061A   25344.12720500  .00000161  00000+0  50305-4 0  9992
2 43569  86.3977 135.8434 0001948  86.2754 273.8665 14.34217313386273
